{"type":"FeatureCollection","fuente":"© OpenStreetMap contributors (ODbL)","features":[{"type":"Feature","properties":{"tipo":"veterinaria","nombre":"Hospital Clínico Veterinario Universidad San Sebastián"},"geometry":{"type":"Point","coordinates":[-73.042811,-36.812885]}},{"type":"Feature","properties":{"tipo":"veterinaria","nombre":"Bayona","calle":"Los Acacios"},"geometry":{"type":"Point","coordinates":[-73.113085,-36.844375]}},{"type":"Feature","properties":{"tipo":"tienda","nombre":null,"calle":"Antonio de las Peñas"},"geometry":{"type":"Point","coordinates":[-73.114352,-36.839271]}},{"type":"Feature","properties":{"tipo":"tienda","nombre":"Alimento mascotas","calle":"Central"},"geometry":{"type":"Point","coordinates":[-73.105528,-36.795506]}},{"type":"Feature","properties":{"tipo":"tienda","nombre":"Movil Pet: Alimentos","calle":"Freire"},"geometry":{"type":"Point","coordinates":[-73.058352,-36.828644]}},{"type":"Feature","properties":{"tipo":"veterinaria","nombre":"Veterinaria Nany Vet","calle":"O'Higgins"},"geometry":{"type":"Point","coordinates":[-73.056546,-36.830181]}},{"type":"Feature","properties":{"tipo":"tienda","nombre":"Alimento para mascotas: CRICRI","calle":"Avenida Gran Bretaña"},"geometry":{"type":"Point","coordinates":[-73.106625,-36.797345]}},{"type":"Feature","properties":{"tipo":"tienda","nombre":"Alimentos para mascotas: Mascota Lovers","calle":"Pasaje 11"},"geometry":{"type":"Point","coordinates":[-73.112608,-36.797773]}},{"type":"Feature","properties":{"tipo":"veterinaria","nombre":"Clínica veterinario: Mascoti","calle":"Avenida Chacabuco"},"geometry":{"type":"Point","coordinates":[-73.05305,-36.832864]}},{"type":"Feature","properties":{"tipo":"veterinaria","nombre":"Clínica Veterinaria Happy Puppy","calle":"O'Higgins"},"geometry":{"type":"Point","coordinates":[-73.055256,-36.830029]}},{"type":"Feature","properties":{"tipo":"tienda","nombre":"Alimentos para mascotas: Nachita Petshop","calle":"Calle 2"},"geometry":{"type":"Point","coordinates":[-73.111768,-36.795493]}},{"type":"Feature","properties":{"tipo":"veterinaria","nombre":"Ciencia Animal","calle":"Rengo"},"geometry":{"type":"Point","coordinates":[-73.050152,-36.830708]}},{"type":"Feature","properties":{"tipo":"veterinaria","nombre":"Clínica Veterinaría: Salud Animal","calle":"Calle 1"},"geometry":{"type":"Point","coordinates":[-73.108133,-36.794734]}},{"type":"Feature","properties":{"tipo":"tienda","nombre":"Alimentos mascotas","calle":"Los Copihues"},"geometry":{"type":"Point","coordinates":[-73.00134,-36.836248]}},{"type":"Feature","properties":{"tipo":"veterinaria","nombre":"Centro veterinario: Valle Noble","calle":"30 de Octubre"},"geometry":{"type":"Point","coordinates":[-73.002164,-36.834799]}},{"type":"Feature","properties":{"tipo":"veterinaria","nombre":"Veterinaria Hualpén","calle":"Avenida Grecia"},"geometry":{"type":"Point","coordinates":[-73.097979,-36.786545]}},{"type":"Feature","properties":{"tipo":"tienda","nombre":"Alimento mascotas \"Patitas\"","calle":"Holanda"},"geometry":{"type":"Point","coordinates":[-73.099163,-36.78139]}},{"type":"Feature","properties":{"tipo":"tienda","nombre":"Alimento mascotas \"Don Willy\"","calle":"Escocia"},"geometry":{"type":"Point","coordinates":[-73.099287,-36.781509]}},{"type":"Feature","properties":{"tipo":"veterinaria","nombre":"Veterinaria Rincón Animal","calle":"Versalles"},"geometry":{"type":"Point","coordinates":[-73.10652,-36.780578]}},{"type":"Feature","properties":{"tipo":"tienda","nombre":"Mascotas","calle":"Maipú","numero":"470"},"geometry":{"type":"Point","coordinates":[-73.053942,-36.825713]}},{"type":"Feature","properties":{"tipo":"veterinaria","nombre":"Veterinaria de la Valle","calle":"Ramuntcho"},"geometry":{"type":"Point","coordinates":[-73.093444,-36.795866]}},{"type":"Feature","properties":{"tipo":"veterinaria","nombre":"Hospital Veterinario Concepción","horario":"Mo-Fr 09:30-22:00, Su 10:00-22:00","calle":"Bernardino Corral","numero":"117"},"geometry":{"type":"Point","coordinates":[-73.0259,-36.817795]}},{"type":"Feature","properties":{"tipo":"veterinaria","nombre":"Clinica Veterinaria","calle":"Avenida Pedro Aguirre Cerda"},"geometry":{"type":"Point","coordinates":[-73.083054,-36.840393]}},{"type":"Feature","properties":{"tipo":"veterinaria","nombre":"Veterinaria Llacolén"},"geometry":{"type":"Point","coordinates":[-73.091134,-36.839171]}},{"type":"Feature","properties":{"tipo":"tienda","nombre":"SuperZoo","calle":"Cosme Churruca","numero":"75"},"geometry":{"type":"Point","coordinates":[-73.05415,-36.787347]}},{"type":"Feature","properties":{"tipo":"tienda","nombre":"Mascota Feliz","calle":"Ramón Carrasco","numero":"418"},"geometry":{"type":"Point","coordinates":[-73.056526,-36.789141]}},{"type":"Feature","properties":{"tipo":"veterinaria","nombre":"Solvet","horario":"Mo-Fr 11:00-20:00; Sa 11:00-16:00","telefono":"+56 412 121 326","calle":"Orompello","numero":"480"},"geometry":{"type":"Point","coordinates":[-73.044581,-36.824393]}},{"type":"Feature","properties":{"tipo":"veterinaria","nombre":"Cris&Becker","telefono":"+56 413 834 444","calle":"Freire","numero":"1064"},"geometry":{"type":"Point","coordinates":[-73.045766,-36.823485]}},{"type":"Feature","properties":{"tipo":"tienda","nombre":"Travesuras","horario":"Mo-Fr 10:30-14:00,15:00-19:30; Sa 10:30-17:30","telefono":"+56 973 437 581","calle":"Colo Colo","numero":"729"},"geometry":{"type":"Point","coordinates":[-73.05022,-36.823523]}},{"type":"Feature","properties":{"tipo":"tienda","nombre":"Cris&Becker","calle":"O'Higgins"},"geometry":{"type":"Point","coordinates":[-73.046404,-36.826321]}},{"type":"Feature","properties":{"tipo":"tienda","nombre":"Caribbean Pets","calle":"Maipú","numero":"935"},"geometry":{"type":"Point","coordinates":[-73.048244,-36.822941]}},{"type":"Feature","properties":{"tipo":"tienda","nombre":"Petinalko","calle":"Avenida Jorge Alessandri","numero":"3177"},"geometry":{"type":"Point","coordinates":[-73.064604,-36.790833]}},{"type":"Feature","properties":{"tipo":"tienda","nombre":"SuperZoo","horario":"Mo-Su 09:30-20:30","telefono":"+56 978 091 979","calle":"Autopista Concepción - Talcahuano","numero":"9000","web":"https://www.superzoo.cl"},"geometry":{"type":"Point","coordinates":[-73.069429,-36.795057]}},{"type":"Feature","properties":{"tipo":"area_verde","nombre":"Plaza Acevedo","area":11783,"horario":"24/7"},"geometry":{"type":"Point","coordinates":[-73.031017,-36.815478]}},{"type":"Feature","properties":{"tipo":"area_verde","nombre":"Plaza de la Independencia","area":11983},"geometry":{"type":"Point","coordinates":[-73.050246,-36.827098]}},{"type":"Feature","properties":{"tipo":"area_verde","nombre":"Plaza Condell","area":12615},"geometry":{"type":"Point","coordinates":[-73.043576,-36.817821]}},{"type":"Feature","properties":{"tipo":"area_verde","nombre":null,"area":13994},"geometry":{"type":"Point","coordinates":[-73.096987,-36.763143]}},{"type":"Feature","properties":{"tipo":"area_verde","nombre":"Plaza Autopista","area":22396},"geometry":{"type":"Point","coordinates":[-73.085478,-36.767636]}},{"type":"Feature","properties":{"tipo":"area_verde","nombre":"Busto Sargento Aldea","area":1457},"geometry":{"type":"Point","coordinates":[-73.089449,-36.763185]}},{"type":"Feature","properties":{"tipo":"area_verde","nombre":"Plaza Cruz","area":13606},"geometry":{"type":"Point","coordinates":[-73.060581,-36.821028]}},{"type":"Feature","properties":{"tipo":"area_verde","nombre":"Parque Bicentenario","area":30255},"geometry":{"type":"Point","coordinates":[-73.062756,-36.831692]}},{"type":"Feature","properties":{"tipo":"area_verde","nombre":"Cerro Amarillo","area":25033},"geometry":{"type":"Point","coordinates":[-73.103134,-36.783568]}},{"type":"Feature","properties":{"tipo":"area_verde","nombre":"Parque Costanera","area":30371},"geometry":{"type":"Point","coordinates":[-73.06909,-36.829192]}},{"type":"Feature","properties":{"tipo":"area_verde","nombre":"Lo Galindo","area":61009},"geometry":{"type":"Point","coordinates":[-73.041195,-36.80008]}},{"type":"Feature","properties":{"tipo":"area_verde","nombre":"Parque Villa Cap","area":17002},"geometry":{"type":"Point","coordinates":[-73.039317,-36.803684]}},{"type":"Feature","properties":{"tipo":"area_verde","nombre":"Plaza Villa Spring Hill","area":2754},"geometry":{"type":"Point","coordinates":[-73.104977,-36.830256]}},{"type":"Feature","properties":{"tipo":"area_verde","nombre":"Plaza Municipalidad San Pedro de la Paz","area":1342},"geometry":{"type":"Point","coordinates":[-73.104004,-36.841431]}},{"type":"Feature","properties":{"tipo":"area_verde","nombre":"Plaza Pases de Negrete","area":7365},"geometry":{"type":"Point","coordinates":[-73.101846,-36.842969]}},{"type":"Feature","properties":{"tipo":"area_verde","nombre":"Parque Laguna Grande","area":73458},"geometry":{"type":"Point","coordinates":[-73.106461,-36.84649]}},{"type":"Feature","properties":{"tipo":"area_verde","nombre":"Parque San Pedro del Valle","area":39907},"geometry":{"type":"Point","coordinates":[-73.115997,-36.843609]}},{"type":"Feature","properties":{"tipo":"area_verde","nombre":"Plaza Pedro Esteban","area":5162},"geometry":{"type":"Point","coordinates":[-73.100847,-36.845824]}},{"type":"Feature","properties":{"tipo":"area_verde","nombre":"Plaza Bélgica","area":8318},"geometry":{"type":"Point","coordinates":[-73.048338,-36.777341]}},{"type":"Feature","properties":{"tipo":"area_verde","nombre":"Plaza Valle Blanco","area":4751},"geometry":{"type":"Point","coordinates":[-73.045548,-36.7819]}},{"type":"Feature","properties":{"tipo":"area_verde","nombre":"Bandejón central Manuel Rodriguez","area":6281},"geometry":{"type":"Point","coordinates":[-73.058039,-36.817998]}},{"type":"Feature","properties":{"tipo":"area_verde","nombre":"Bandejón central Manuel Rodríguez","area":5076},"geometry":{"type":"Point","coordinates":[-73.049389,-36.814387]}},{"type":"Feature","properties":{"tipo":"area_verde","nombre":"Bandejón central Manuel Rodriguez","area":2203},"geometry":{"type":"Point","coordinates":[-73.061538,-36.819454]}},{"type":"Feature","properties":{"tipo":"area_verde","nombre":"Bandejón central Manuel Rodriguez","area":2089},"geometry":{"type":"Point","coordinates":[-73.051512,-36.815267]}},{"type":"Feature","properties":{"tipo":"area_verde","nombre":"Bandejón central Manuel Rodriguez","area":4747},"geometry":{"type":"Point","coordinates":[-73.054786,-36.81663]}},{"type":"Feature","properties":{"tipo":"area_verde","nombre":"Plaza Pedro Lira","area":8831},"geometry":{"type":"Point","coordinates":[-73.096335,-36.84137]}},{"type":"Feature","properties":{"tipo":"area_verde","nombre":"Bandejón central Manuel Rodriguez","area":2432},"geometry":{"type":"Point","coordinates":[-73.052719,-36.815769]}},{"type":"Feature","properties":{"tipo":"area_verde","nombre":"Áreas verdes Esmeralda","area":2045},"geometry":{"type":"Point","coordinates":[-73.056245,-36.835104]}},{"type":"Feature","properties":{"tipo":"area_verde","nombre":"Plaza San Pedro Histórico","area":990},"geometry":{"type":"Point","coordinates":[-73.091199,-36.841204]}},{"type":"Feature","properties":{"tipo":"area_verde","nombre":"Parque Las Tres Pascualas","area":11169},"geometry":{"type":"Point","coordinates":[-73.046723,-36.814339]}},{"type":"Feature","properties":{"tipo":"area_verde","nombre":"Parque Los Fresnos","area":7668},"geometry":{"type":"Point","coordinates":[-73.010881,-36.826455]}},{"type":"Feature","properties":{"tipo":"area_verde","nombre":null,"area":3119},"geometry":{"type":"Point","coordinates":[-73.013419,-36.826535]}},{"type":"Feature","properties":{"tipo":"area_verde","nombre":null,"area":26519},"geometry":{"type":"Point","coordinates":[-73.024938,-36.811674]}},{"type":"Feature","properties":{"tipo":"area_verde","nombre":"Plazoleta Silvio Canese","area":387},"geometry":{"type":"Point","coordinates":[-73.059804,-36.810655]}},{"type":"Feature","properties":{"tipo":"area_verde","nombre":"Plaza San Juan Bosco","area":3261},"geometry":{"type":"Point","coordinates":[-73.035487,-36.82016]}},{"type":"Feature","properties":{"tipo":"area_verde","nombre":"Parque Aníbal Pinto","area":4737},"geometry":{"type":"Point","coordinates":[-73.060977,-36.810624]}},{"type":"Feature","properties":{"tipo":"area_verde","nombre":"Plaza de San remo","area":409},"geometry":{"type":"Point","coordinates":[-73.041344,-36.780101]}},{"type":"Feature","properties":{"tipo":"area_verde","nombre":"Parque Primavera","area":5670},"geometry":{"type":"Point","coordinates":[-73.068669,-36.807205]}},{"type":"Feature","properties":{"tipo":"area_verde","nombre":"Plaza Enrique Soro","area":7668,"horario":"24/7"},"geometry":{"type":"Point","coordinates":[-73.100394,-36.831906]}},{"type":"Feature","properties":{"tipo":"area_verde","nombre":"Plaza Los Huertos","area":3392},"geometry":{"type":"Point","coordinates":[-73.101658,-36.834589]}},{"type":"Feature","properties":{"tipo":"area_verde","nombre":null,"area":6741},"geometry":{"type":"Point","coordinates":[-73.100953,-36.835311]}},{"type":"Feature","properties":{"tipo":"area_verde","nombre":null,"area":7618},"geometry":{"type":"Point","coordinates":[-73.101571,-36.836009]}},{"type":"Feature","properties":{"tipo":"area_verde","nombre":"Parque Lo Custodio","area":10134},"geometry":{"type":"Point","coordinates":[-73.041352,-36.80685]}},{"type":"Feature","properties":{"tipo":"area_verde","nombre":"Bandejón central Manuel Rodriguez","area":2050},"geometry":{"type":"Point","coordinates":[-73.060194,-36.818893]}},{"type":"Feature","properties":{"tipo":"area_verde","nombre":"Plazoleta Ejercito 2","area":442},"geometry":{"type":"Point","coordinates":[-73.06221,-36.817135]}},{"type":"Feature","properties":{"tipo":"area_verde","nombre":null,"area":15867},"geometry":{"type":"Point","coordinates":[-73.07535,-36.771198]}},{"type":"Feature","properties":{"tipo":"area_verde","nombre":null,"area":7525},"geometry":{"type":"Point","coordinates":[-73.078924,-36.771595]}},{"type":"Feature","properties":{"tipo":"area_verde","nombre":"Parque Ecuador","area":68658},"geometry":{"type":"Point","coordinates":[-73.050357,-36.83375]}},{"type":"Feature","properties":{"tipo":"area_verde","nombre":"Plaza Villa Miraflores","area":2659},"geometry":{"type":"Point","coordinates":[-73.076773,-36.810495]}},{"type":"Feature","properties":{"tipo":"area_verde","nombre":null,"area":3421},"geometry":{"type":"Point","coordinates":[-73.020523,-36.821302]}},{"type":"Feature","properties":{"tipo":"area_verde","nombre":"Plaza Los Lirios","area":1802},"geometry":{"type":"Point","coordinates":[-73.018046,-36.823637]}},{"type":"Feature","properties":{"tipo":"area_verde","nombre":"Plazoleta Agua de Las Niñas","area":119},"geometry":{"type":"Point","coordinates":[-73.049699,-36.855597]}},{"type":"Feature","properties":{"tipo":"area_verde","nombre":null,"area":5478},"geometry":{"type":"Point","coordinates":[-73.055859,-36.82276]}},{"type":"Feature","properties":{"tipo":"area_verde","nombre":"Pastos Universidad San Sebastián","area":235},"geometry":{"type":"Point","coordinates":[-73.044061,-36.813504]}},{"type":"Feature","properties":{"tipo":"area_verde","nombre":"Pastos Universidad San Sebastián","area":138},"geometry":{"type":"Point","coordinates":[-73.044313,-36.813716]}},{"type":"Feature","properties":{"tipo":"area_verde","nombre":"Patio Ingles","area":134},"geometry":{"type":"Point","coordinates":[-73.044462,-36.813979]}},{"type":"Feature","properties":{"tipo":"area_verde","nombre":"Plaza La Virgen","area":98},"geometry":{"type":"Point","coordinates":[-73.042716,-36.812153]}},{"type":"Feature","properties":{"tipo":"area_verde","nombre":"Plazoleta Valle Escondido de Paicaví","area":2501},"geometry":{"type":"Point","coordinates":[-73.058573,-36.802875]}},{"type":"Feature","properties":{"tipo":"area_verde","nombre":"Plaza Perú","area":2412},"geometry":{"type":"Point","coordinates":[-73.040054,-36.826715]}},{"type":"Feature","properties":{"tipo":"area_verde","nombre":"Plaza Madrid","area":4346},"geometry":{"type":"Point","coordinates":[-73.060098,-36.801636]}},{"type":"Feature","properties":{"tipo":"area_verde","nombre":"Plazoleta Ejercito 1","area":543},"geometry":{"type":"Point","coordinates":[-73.061573,-36.815657]}},{"type":"Feature","properties":{"tipo":"area_verde","nombre":"Bandejón central Manuel Rodríguez","area":1532},"geometry":{"type":"Point","coordinates":[-73.063918,-36.820454]}},{"type":"Feature","properties":{"tipo":"area_verde","nombre":null,"area":3428},"geometry":{"type":"Point","coordinates":[-73.064416,-36.819692]}},{"type":"Feature","properties":{"tipo":"area_verde","nombre":"Bandejón central Manuel Rodríguez","area":1847},"geometry":{"type":"Point","coordinates":[-73.062973,-36.820044]}},{"type":"Feature","properties":{"tipo":"area_verde","nombre":null,"area":5571},"geometry":{"type":"Point","coordinates":[-73.061778,-36.803839]}},{"type":"Feature","properties":{"tipo":"area_verde","nombre":"Plaza Las Encinas","area":1384},"geometry":{"type":"Point","coordinates":[-73.097419,-36.847368]}},{"type":"Feature","properties":{"tipo":"area_verde","nombre":"Plaza de Juegos Lonco Norte","area":977},"geometry":{"type":"Point","coordinates":[-73.041189,-36.865649]}},{"type":"Feature","properties":{"tipo":"area_verde","nombre":"Plaza de Juegos","area":800},"geometry":{"type":"Point","coordinates":[-73.114631,-36.847624]}},{"type":"Feature","properties":{"tipo":"area_verde","nombre":null,"area":5341},"geometry":{"type":"Point","coordinates":[-73.112941,-36.839854]}},{"type":"Feature","properties":{"tipo":"area_verde","nombre":null,"area":6997},"geometry":{"type":"Point","coordinates":[-73.110548,-36.838673]}},{"type":"Feature","properties":{"tipo":"area_verde","nombre":"Plaza Nuevo Amanecer","area":1108},"geometry":{"type":"Point","coordinates":[-73.10297,-36.794544]}},{"type":"Feature","properties":{"tipo":"area_verde","nombre":"Plaza Sajonia","area":547},"geometry":{"type":"Point","coordinates":[-73.10543,-36.795245]}},{"type":"Feature","properties":{"tipo":"area_verde","nombre":null,"area":3566},"geometry":{"type":"Point","coordinates":[-73.100561,-36.7855]}},{"type":"Feature","properties":{"tipo":"area_verde","nombre":"Plaza Lota","area":2567},"geometry":{"type":"Point","coordinates":[-73.093904,-36.840025]}},{"type":"Feature","properties":{"tipo":"area_verde","nombre":"Abedules de Collao","area":104},"geometry":{"type":"Point","coordinates":[-73.01851,-36.817092]}},{"type":"Feature","properties":{"tipo":"area_verde","nombre":"Parque Las Hortensias","area":31610},"geometry":{"type":"Point","coordinates":[-73.089713,-36.760703]}},{"type":"Feature","properties":{"tipo":"area_verde","nombre":"Parque Violeta Parra","area":15525},"geometry":{"type":"Point","coordinates":[-73.112186,-36.828088]}},{"type":"Feature","properties":{"tipo":"area_verde","nombre":"Plaza Lomas de San Andrés","area":5701},"geometry":{"type":"Point","coordinates":[-73.057719,-36.791956]}},{"type":"Feature","properties":{"tipo":"area_verde","nombre":"Parque Ríos de Chile","area":2363},"geometry":{"type":"Point","coordinates":[-73.006806,-36.826568]}},{"type":"Feature","properties":{"tipo":"area_verde","nombre":"Plaza Lagos de Chile","area":965},"geometry":{"type":"Point","coordinates":[-73.022306,-36.82028]}},{"type":"Feature","properties":{"tipo":"area_verde","nombre":"Jardines Universidad del Bío-Bío","area":12258},"geometry":{"type":"Point","coordinates":[-73.015048,-36.821172]}},{"type":"Feature","properties":{"tipo":"area_verde","nombre":null,"area":3827},"geometry":{"type":"Point","coordinates":[-73.071346,-36.817048]}},{"type":"Feature","properties":{"tipo":"area_verde","nombre":null,"area":4469},"geometry":{"type":"Point","coordinates":[-73.070538,-36.817666]}},{"type":"Feature","properties":{"tipo":"area_verde","nombre":"Plaza Arturo Prat","area":3156},"geometry":{"type":"Point","coordinates":[-73.094723,-36.791068]}},{"type":"Feature","properties":{"tipo":"area_verde","nombre":"Plaza Bernardino Corral","area":1061},"geometry":{"type":"Point","coordinates":[-73.027382,-36.819547]}},{"type":"Feature","properties":{"tipo":"area_verde","nombre":null,"area":3238},"geometry":{"type":"Point","coordinates":[-73.094397,-36.794002]}},{"type":"Feature","properties":{"tipo":"area_verde","nombre":"Plaza Iluminada Bremen","area":1579},"geometry":{"type":"Point","coordinates":[-73.099318,-36.79547]}},{"type":"Feature","properties":{"tipo":"area_verde","nombre":"Parque Reconquista","area":1921},"geometry":{"type":"Point","coordinates":[-73.097325,-36.794968]}},{"type":"Feature","properties":{"tipo":"area_verde","nombre":"Parque Grecia","area":13102},"geometry":{"type":"Point","coordinates":[-73.100196,-36.786783]}},{"type":"Feature","properties":{"tipo":"area_verde","nombre":"Plazoleta Las Americas","area":1433},"geometry":{"type":"Point","coordinates":[-73.097328,-36.793598]}},{"type":"Feature","properties":{"tipo":"area_verde","nombre":"Plazoleta Perla del BioBio","area":749},"geometry":{"type":"Point","coordinates":[-73.100929,-36.793547]}},{"type":"Feature","properties":{"tipo":"area_verde","nombre":"Plaza del Castillo","area":1699},"geometry":{"type":"Point","coordinates":[-73.099127,-36.793498]}},{"type":"Feature","properties":{"tipo":"area_verde","nombre":null,"area":5378},"geometry":{"type":"Point","coordinates":[-73.104931,-36.80119]}},{"type":"Feature","properties":{"tipo":"area_verde","nombre":"Parque Costanera","area":30834},"geometry":{"type":"Point","coordinates":[-73.064187,-36.834235]}},{"type":"Feature","properties":{"tipo":"area_verde","nombre":"Parque Villa Obreros Nuevo Puente Juan Pablo II","area":6212},"geometry":{"type":"Point","coordinates":[-73.101608,-36.830218]}},{"type":"Feature","properties":{"tipo":"veterinaria","nombre":"Los Huertos","calle":"Las Margaritas"},"geometry":{"type":"Point","coordinates":[-73.104606,-36.834511]}},{"type":"Feature","properties":{"tipo":"area_verde","nombre":"Cerro Puntilla de Perales","area":3905},"geometry":{"type":"Point","coordinates":[-73.087809,-36.765376]}},{"type":"Feature","properties":{"tipo":"area_verde","nombre":null,"area":7884},"geometry":{"type":"Point","coordinates":[-73.089869,-36.766697]}},{"type":"Feature","properties":{"tipo":"area_verde","nombre":"Parque Violeta Parra","area":3086},"geometry":{"type":"Point","coordinates":[-73.107323,-36.829124]}},{"type":"Feature","properties":{"tipo":"area_verde","nombre":"Parque Violeta Parra","area":6884},"geometry":{"type":"Point","coordinates":[-73.10441,-36.829354]}},{"type":"Feature","properties":{"tipo":"area_verde","nombre":"Plaza de la Abejita","area":118},"geometry":{"type":"Point","coordinates":[-73.078076,-36.812859]}},{"type":"Feature","properties":{"tipo":"veterinaria","nombre":"Veterinaria Tribu Animal","horario":"10:00-14:00,15:00-19:00","telefono":"+56 412 797 232","calle":"Pedro de Oña","numero":"215"},"geometry":{"type":"Point","coordinates":[-73.07629,-36.806651]}},{"type":"Feature","properties":{"tipo":"area_verde","nombre":"Parque Pablo de Rokha","area":857},"geometry":{"type":"Point","coordinates":[-73.092758,-36.796251]}},{"type":"Feature","properties":{"tipo":"area_verde","nombre":null,"area":7197},"geometry":{"type":"Point","coordinates":[-73.099435,-36.765615]}},{"type":"Feature","properties":{"tipo":"area_verde","nombre":null,"area":9192},"geometry":{"type":"Point","coordinates":[-73.034439,-36.827297]}},{"type":"Feature","properties":{"tipo":"area_verde","nombre":"Plaza Barrio Norte","area":381},"geometry":{"type":"Point","coordinates":[-73.034725,-36.795307]}},{"type":"Feature","properties":{"tipo":"area_verde","nombre":"Plaza Torpedo","area":1000},"geometry":{"type":"Point","coordinates":[-73.093536,-36.761755]}},{"type":"Feature","properties":{"tipo":"area_verde","nombre":"Plaza Cardenio Avello","area":1377},"geometry":{"type":"Point","coordinates":[-73.071168,-36.818456]}},{"type":"Feature","properties":{"tipo":"area_verde","nombre":"Plaza Andres Lamas","area":1467},"geometry":{"type":"Point","coordinates":[-73.073758,-36.816866]}},{"type":"Feature","properties":{"tipo":"area_verde","nombre":"Parque Andalién","area":1037},"geometry":{"type":"Point","coordinates":[-73.029943,-36.801718]}},{"type":"Feature","properties":{"tipo":"area_verde","nombre":"Plazoleta Villa San Francisco","area":1620},"geometry":{"type":"Point","coordinates":[-73.026912,-36.799179]}},{"type":"Feature","properties":{"tipo":"area_verde","nombre":"Plaza de juegos Villa San Francisco","area":2618},"geometry":{"type":"Point","coordinates":[-73.026474,-36.797177]}},{"type":"Feature","properties":{"tipo":"area_verde","nombre":"Plaza de Juegos San Ramón","area":1245},"geometry":{"type":"Point","coordinates":[-73.029832,-36.808871]}},{"type":"Feature","properties":{"tipo":"area_verde","nombre":"Parque de las Lagunas","area":1055},"geometry":{"type":"Point","coordinates":[-73.098537,-36.767239]}},{"type":"Feature","properties":{"tipo":"area_verde","nombre":"Plaza de Juegos Los Escritores","area":533},"geometry":{"type":"Point","coordinates":[-73.091014,-36.79781]}},{"type":"Feature","properties":{"tipo":"area_verde","nombre":"Parque de la Virgen","area":2736},"geometry":{"type":"Point","coordinates":[-73.029014,-36.82293]}},{"type":"Feature","properties":{"tipo":"area_verde","nombre":"Plaza Lonco Norte","area":1359},"geometry":{"type":"Point","coordinates":[-73.042505,-36.865024]}},{"type":"Feature","properties":{"tipo":"area_verde","nombre":"Parque Ecuador","area":14340},"geometry":{"type":"Point","coordinates":[-73.044374,-36.831518]}},{"type":"Feature","properties":{"tipo":"area_verde","nombre":"Plazoleta Jaqueline Van Rysselberghe","area":430},"geometry":{"type":"Point","coordinates":[-73.056592,-36.810613]}},{"type":"Feature","properties":{"tipo":"area_verde","nombre":"Plaza Exterior","area":1713},"geometry":{"type":"Point","coordinates":[-73.015389,-36.820403]}},{"type":"Feature","properties":{"tipo":"area_verde","nombre":"Plaza Los Troncos","area":883},"geometry":{"type":"Point","coordinates":[-73.044298,-36.803527]}},{"type":"Feature","properties":{"tipo":"area_verde","nombre":"Plaza Bellavista","area":598},"geometry":{"type":"Point","coordinates":[-73.087316,-36.838509]}},{"type":"Feature","properties":{"tipo":"area_verde","nombre":"Paseo Marsella","area":7255},"geometry":{"type":"Point","coordinates":[-73.097121,-36.785482]}},{"type":"Feature","properties":{"tipo":"area_verde","nombre":null,"area":7722},"geometry":{"type":"Point","coordinates":[-73.047647,-36.83375]}},{"type":"Feature","properties":{"tipo":"area_verde","nombre":null,"area":4414},"geometry":{"type":"Point","coordinates":[-73.029613,-36.813111]}},{"type":"Feature","properties":{"tipo":"area_verde","nombre":null,"area":23054},"geometry":{"type":"Point","coordinates":[-73.050405,-36.773969]}},{"type":"Feature","properties":{"tipo":"area_verde","nombre":"Plaza Río Andalién","area":13183},"geometry":{"type":"Point","coordinates":[-73.042987,-36.775248]}},{"type":"Feature","properties":{"tipo":"area_verde","nombre":"Plaza Las Princesas","area":1521},"geometry":{"type":"Point","coordinates":[-73.041785,-36.782425]}},{"type":"Feature","properties":{"tipo":"area_verde","nombre":"Plaza Bellavista","area":2528},"geometry":{"type":"Point","coordinates":[-73.040955,-36.78577]}},{"type":"Feature","properties":{"tipo":"area_verde","nombre":null,"area":6439},"geometry":{"type":"Point","coordinates":[-73.03865,-36.784778]}},{"type":"Feature","properties":{"tipo":"area_verde","nombre":null,"area":3459},"geometry":{"type":"Point","coordinates":[-72.998518,-36.818703]}},{"type":"Feature","properties":{"tipo":"area_verde","nombre":"Parque Laguna Lo Méndez","area":6968},"geometry":{"type":"Point","coordinates":[-73.050707,-36.800475]}},{"type":"Feature","properties":{"tipo":"area_verde","nombre":null,"area":3937},"geometry":{"type":"Point","coordinates":[-73.115438,-36.785053]}},{"type":"Feature","properties":{"tipo":"area_verde","nombre":null,"area":5936},"geometry":{"type":"Point","coordinates":[-73.110526,-36.792649]}},{"type":"Feature","properties":{"tipo":"area_verde","nombre":"Parque de la Cruz","area":4069},"geometry":{"type":"Point","coordinates":[-73.043178,-36.796611]}},{"type":"Feature","properties":{"tipo":"area_verde","nombre":"Plaza Raquel Rojas","area":344},"geometry":{"type":"Point","coordinates":[-73.044283,-36.804266]}},{"type":"Feature","properties":{"tipo":"area_verde","nombre":"Plaza Luz María Aguilera","area":1411},"geometry":{"type":"Point","coordinates":[-73.046351,-36.803048]}},{"type":"Feature","properties":{"tipo":"area_verde","nombre":"Plaza Montriou","area":1169},"geometry":{"type":"Point","coordinates":[-73.041818,-36.803166]}},{"type":"Feature","properties":{"tipo":"area_verde","nombre":"Plaza Baquedano","area":860},"geometry":{"type":"Point","coordinates":[-73.033062,-36.81095]}},{"type":"Feature","properties":{"tipo":"area_verde","nombre":null,"area":30778},"geometry":{"type":"Point","coordinates":[-73.069991,-36.770523]}},{"type":"Feature","properties":{"tipo":"area_verde","nombre":null,"area":3383},"geometry":{"type":"Point","coordinates":[-73.10407,-36.846367]}},{"type":"Feature","properties":{"tipo":"area_verde","nombre":null,"area":4280},"geometry":{"type":"Point","coordinates":[-73.095276,-36.766062]}},{"type":"Feature","properties":{"tipo":"area_verde","nombre":null,"area":4300},"geometry":{"type":"Point","coordinates":[-73.070851,-36.811038]}},{"type":"Feature","properties":{"tipo":"area_verde","nombre":"Paseo de la Memoria","area":7722},"geometry":{"type":"Point","coordinates":[-73.071437,-36.811595]}},{"type":"Feature","properties":{"tipo":"area_verde","nombre":"Paseo de la Memoria","area":5276},"geometry":{"type":"Point","coordinates":[-73.076023,-36.809199]}},{"type":"Feature","properties":{"tipo":"area_verde","nombre":"Plaza de las Memorias y los Derechos Humanos","area":455},"geometry":{"type":"Point","coordinates":[-73.035567,-36.827562]}},{"type":"Feature","properties":{"tipo":"area_verde","nombre":null,"area":3540},"geometry":{"type":"Point","coordinates":[-73.058705,-36.797205]}},{"type":"Feature","properties":{"tipo":"area_verde","nombre":"Parque Costanera Valle Noble","area":6458},"geometry":{"type":"Point","coordinates":[-73.003493,-36.815753]}},{"type":"Feature","properties":{"tipo":"area_verde","nombre":null,"area":4684},"geometry":{"type":"Point","coordinates":[-73.033784,-36.799346]}},{"type":"Feature","properties":{"tipo":"area_verde","nombre":null,"area":4052},"geometry":{"type":"Point","coordinates":[-73.100304,-36.863767]}},{"type":"Feature","properties":{"tipo":"area_verde","nombre":"Parque Valle Blanco","area":4899},"geometry":{"type":"Point","coordinates":[-73.043806,-36.777953]}},{"type":"Feature","properties":{"tipo":"area_verde","nombre":null,"area":3950},"geometry":{"type":"Point","coordinates":[-73.094322,-36.848031]}},{"type":"Feature","properties":{"tipo":"area_verde","nombre":null,"area":4617},"geometry":{"type":"Point","coordinates":[-73.039149,-36.867233]}},{"type":"Feature","properties":{"tipo":"area_verde","nombre":null,"area":4531},"geometry":{"type":"Point","coordinates":[-73.037544,-36.871357]}},{"type":"Feature","properties":{"tipo":"area_verde","nombre":"Plazoleta Paul Harris","area":813},"geometry":{"type":"Point","coordinates":[-73.029876,-36.815108]}},{"type":"Feature","properties":{"tipo":"area_verde","nombre":"Parque Aurora de Chile","area":8795},"geometry":{"type":"Point","coordinates":[-73.063381,-36.833635]}},{"type":"Feature","properties":{"tipo":"area_verde","nombre":null,"area":3439},"geometry":{"type":"Point","coordinates":[-73.081505,-36.789336]}},{"type":"Feature","properties":{"tipo":"area_verde","nombre":"Parque Ambrosio O'Higgins","area":15426},"geometry":{"type":"Point","coordinates":[-73.107147,-36.840207]}},{"type":"Feature","properties":{"tipo":"area_verde","nombre":"Parque Metropolitano Cerro Caracol","area":1011767,"horario":"Tu-Su 08:00-19:00"},"geometry":{"type":"Point","coordinates":[-73.042515,-36.835465]}},{"type":"Feature","properties":{"tipo":"area_verde","nombre":null,"area":24216},"geometry":{"type":"Point","coordinates":[-73.030836,-36.779039]}},{"type":"Feature","properties":{"tipo":"area_verde","nombre":null,"area":6038},"geometry":{"type":"Point","coordinates":[-73.05669,-36.784627]}},{"type":"Feature","properties":{"tipo":"area_verde","nombre":null,"area":9496},"geometry":{"type":"Point","coordinates":[-73.072425,-36.774164]}},{"type":"Feature","properties":{"tipo":"area_verde","nombre":null,"area":22987},"geometry":{"type":"Point","coordinates":[-73.07117,-36.772436]}},{"type":"Feature","properties":{"tipo":"area_verde","nombre":null,"area":3597},"geometry":{"type":"Point","coordinates":[-73.09876,-36.803299]}},{"type":"Feature","properties":{"tipo":"area_verde","nombre":"Jardín de Nuestro Señor Jesucristo","area":32},"geometry":{"type":"Point","coordinates":[-73.107807,-36.839348]}},{"type":"Feature","properties":{"tipo":"area_verde","nombre":"Parque Postdam","area":32273},"geometry":{"type":"Point","coordinates":[-73.096944,-36.799219]}},{"type":"Feature","properties":{"tipo":"area_verde","nombre":null,"area":5814},"geometry":{"type":"Point","coordinates":[-73.067086,-36.805564]}},{"type":"Feature","properties":{"tipo":"area_verde","nombre":null,"area":8775},"geometry":{"type":"Point","coordinates":[-72.99861,-36.814592]}},{"type":"Feature","properties":{"tipo":"area_verde","nombre":null,"area":3944},"geometry":{"type":"Point","coordinates":[-73.029323,-36.781573]}},{"type":"Feature","properties":{"tipo":"area_verde","nombre":null,"area":3838},"geometry":{"type":"Point","coordinates":[-73.101914,-36.862555]}}]}